NORAD_CAT_ID,OBJECT_NAME,OBJECT_TYPE,EPOCH,MEAN_MOTION,ECCENTRICITY,INCLINATION,RA_OF_ASC_NODE,ARG_OF_PERICENTER,MEAN_ANOMALY,BSTAR,MEAN_MOTION_DOT,MEAN_MOTION_DDOT,TLE_LINE0,TLE_LINE1,TLE_LINE2,SEMIMAJOR_AXIS,PERIOD,APOGEE,PERIGEE,DECAYED
53533.0,STARLINK-4493,PAYLOAD,2023-09-05 15:09:22,15.08849151,0.0001473,53.2175,226.4549,87.2511,272.865,1.2157e-05,-9.4e-07,0.0,0 STARLINK-4493,1 53533U 22101G   23248.63150633 -.00000094  00000-0  12157-4 0  9995,2 53533  53.2175 226.4549 0001473  87.2511 272.8650 15.08849151 57874,6917.852,95.437,540.736,538.698,0.0
53533.0,STARLINK-4493,PAYLOAD,2023-09-06 07:03:14,15.08839595,0.0001432,53.2174,223.4807,83.11,277.0055,0.00011576,1.555e-05,0.0,0 STARLINK-4493,1 53533U 22101G   23249.29391294  .00001555  00000-0  11576-3 0  9993,2 53533  53.2174 223.4807 0001432  83.1100 277.0055 15.08839595 57979,6917.882,95.438,540.737,538.756,0.0
53533.0,STARLINK-4493,PAYLOAD,2023-09-07 08:29:24,15.08839579,0.0001489,53.2175,218.723,84.134,275.9822,-2.0555e-06,-3.21e-06,0.0,0 STARLINK-4493,1 53533U 22101G   23250.35375740 -.00000321  00000-0 -20555-5 0  9991,2 53533  53.2175 218.7230 0001489  84.1340 275.9822 15.08839579 58136,6917.882,95.438,540.777,538.717,0.0
53533.0,STARLINK-4493,PAYLOAD,2023-09-08 05:09:25,15.08839892,0.0001452,53.2167,214.8571,87.6354,272.4804,1.7212e-05,-1.4e-07,0.0,0 STARLINK-4493,1 53533U 22101G   23251.21487785 -.00000014  00000-0  17212-4 0  9993,2 53533  53.2167 214.8571 0001452  87.6354 272.4804 15.08839892 58269,6917.881,95.438,540.75,538.741,0.0
53533.0,STARLINK-4493,PAYLOAD,2023-09-08 21:03:16,15.08835905,0.0001423,53.2167,211.8832,89.0186,271.0969,6.0029e-05,6.67e-06,0.0,0 STARLINK-4493,1 53533U 22101G   23251.87728005  .00000667  00000-0  60029-4 0  9995,2 53533  53.2167 211.8832 0001423  89.0186 271.0969 15.08835905 58362,6917.893,95.438,540.742,538.773,0.0
53533.0,STARLINK-4493,PAYLOAD,2023-09-09 01:49:26,15.08839168,0.0001437,53.2172,210.9912,89.9442,270.1714,8.2449e-05,1.024e-05,0.0,0 STARLINK-4493,1 53533U 22101G   23252.07599772  .00001024  00000-0  82449-4 0  9993,2 53533  53.2172 210.9912 0001437  89.9442 270.1714 15.08839168 58392,6917.883,95.438,540.742,538.754,0.0
53533.0,STARLINK-4493,PAYLOAD,2023-09-09 06:35:35,15.08841916,0.000144,53.2175,210.0991,86.8058,273.3099,0.0001027,1.347e-05,0.0,0 STARLINK-4493,1 53533U 22101G   23252.27471559  .00001347  00000-0  10270-3 0  9997,2 53533  53.2175 210.0991 0001440  86.8058 273.3099 15.08841916 58425,6917.875,95.437,540.736,538.743,0.0
53533.0,STARLINK-4493,PAYLOAD,2023-09-10 01:40:13,15.08837,0.000155,53.2179,206.5314,79.811,280.3056,3.9677e-05,3.43e-06,0.0,0 STARLINK-4493,1 53533U 22101G   23253.06960323  .00000343  00000-0  39677-4 0  9995,2 53533  53.2179 206.5314 0001550  79.8110 280.3056 15.08837000 58544,6917.89,95.438,540.827,538.682,0.0
53533.0,STARLINK-4493,PAYLOAD,2023-09-10 06:26:22,15.08839035,0.0001547,53.2177,205.6389,81.275,278.8418,5.3002e-05,5.56e-06,0.0,0 STARLINK-4493,1 53533U 22101G   23253.26832168  .00000556  00000-0  53002-4 0  9996,2 53533  53.2177 205.6389 0001547  81.2750 278.8418 15.08839035 58574,6917.883,95.438,540.819,538.678,0.0
53533.0,STARLINK-4493,PAYLOAD,2023-09-11 03:06:23,15.08843495,0.0001287,53.2163,201.7717,88.3256,271.7884,2.8078e-05,1.59e-06,0.0,0 STARLINK-4493,1 53533U 22101G   23254.12943939  .00000159  00000-0  28078-4 0  9995,2 53533  53.2163 201.7717 0001287  88.3256 271.7884 15.08843495 58700,6917.87,95.437,540.625,538.844,0.0
53533.0,STARLINK-4493,PAYLOAD,2023-09-11 06:17:09,15.08843035,0.0001365,53.2166,201.1771,96.0657,264.0491,3.9478e-05,3.4e-06,0.0,0 STARLINK-4493,1 53533U 22101G   23254.26191912  .00000340  00000-0  39478-4 0  9994,2 53533  53.2166 201.1771 0001365  96.0657 264.0491 15.08843035 58726,6917.871,95.437,540.68,538.792,0.0
53533.0,STARLINK-4493,PAYLOAD,2023-09-12 06:07:56,15.08844591,0.0001474,53.2178,196.7155,100.7615,259.3543,8.2537e-05,1.026e-05,0.0,0 STARLINK-4493,1 53533U 22101G   23255.25551620  .00001026  00000-0  82537-4 0  9996,2 53533  53.2178 196.7155 0001474 100.7615 259.3543 15.08844591 58871,6917.866,95.437,540.751,538.712,0.0
53533.0,STARLINK-4493,PAYLOAD,2023-09-12 20:26:25,15.08840934,0.000155,53.2191,194.0384,102.5676,257.549,9.195e-06,-1.42e-06,0.0,0 STARLINK-4493,1 53533U 22101G   23255.85168132 -.00000142  00000-0  91950-5 0  9993,2 53533  53.2191 194.0384 0001550 102.5676 257.5490 15.08840934 58961,6917.878,95.437,540.815,538.67,0.0
53533.0,STARLINK-4493,PAYLOAD,2023-09-13 02:47:57,15.08848689,0.0001275,53.2177,192.854,90.6279,269.4859,4.7437e-05,4.67e-06,0.0,0 STARLINK-4493,1 53533U 22101G   23256.11663615  .00000467  00000-0  47437-4 0  9998,2 53533  53.2177 192.8540 0001275  90.6279 269.4859 15.08848689 59007,6917.854,95.437,540.601,538.837,0.0
53533.0,STARLINK-4493,PAYLOAD,2023-09-13 20:17:12,15.08845034,0.0001162,53.218,189.5824,84.1077,276.0047,-5.7114e-05,-1.197e-05,0.0,0 STARLINK-4493,1 53533U 22101G   23256.84528154 -.00001197  00000-0 -57114-4 0  9992,2 53533  53.2180 189.5824 0001162  84.1077 276.0047 15.08845034 59114,6917.865,95.437,540.534,538.926,0.0
53533.0,STARLINK-4493,PAYLOAD,2023-09-14 02:38:44,15.08848768,0.0001324,53.2178,188.3927,110.2245,249.8889,-1.3373e-05,-5.01e-06,0.0,0 STARLINK-4493,1 53533U 22101G   23257.11023613 -.00000501  00000-0 -13373-4 0  9990,2 53533  53.2178 188.3927 0001324 110.2245 249.8889 15.08848768 59153,6917.854,95.437,540.635,538.803,0.0
53533.0,STARLINK-4493,PAYLOAD,2023-09-14 05:49:30,15.08849399,0.0001212,53.2179,187.7966,107.3712,252.7413,2.1169e-05,4.9e-07,0.0,0 STARLINK-4493,1 53533U 22101G   23257.24271418  .00000049  00000-0  21169-4 0  9999,2 53533  53.2179 187.7966 0001212 107.3712 252.7413 15.08849399 59171,6917.852,95.437,540.555,538.878,0.0
53533.0,STARLINK-4493,PAYLOAD,2023-09-14 20:08:00,15.08832645,0.0001285,53.2176,185.1194,84.3668,275.7471,6.0233e-06,-1.92e-06,0.0,0 STARLINK-4493,1 53533U 22101G   23257.83888899 -.00000192  00000-0  60233-5 0  9997,2 53533  53.2176 185.1194 0001285  84.3668 275.7471 15.08832645 59262,6917.903,95.438,540.657,538.879,0.0
53533.0,STARLINK-4493,PAYLOAD,2023-09-15 02:29:32,15.08839894,0.0001578,53.218,183.9342,108.5521,251.5642,-8.7999e-05,-1.688e-05,0.0,0 STARLINK-4493,1 53533U 22101G   23258.10384744 -.00001688  00000-0 -87999-4 0  9997,2 53533  53.2180 183.9342 0001578 108.5521 251.5642 15.08839894 59300,6917.881,95.438,540.837,538.654,0.0
53533.0,STARLINK-4493,PAYLOAD,2023-09-15 04:04:55,15.08836657,0.0001241,53.218,183.6358,83.6525,276.4609,2.6394e-05,1.32e-06,0.0,0 STARLINK-4493,1 53533U 22101G   23258.17008843  .00000132  00000-0  26394-4 0  9990,2 53533  53.2180 183.6358 0001241  83.6525 276.4609 15.08836657 59312,6917.891,95.438,540.614,538.897,0.0
53533.0,STARLINK-4493,PAYLOAD,2023-09-16 03:55:41,15.08856003,0.0001498,53.2176,179.1749,104.7126,255.4032,-5.3322e-05,-1.137e-05,0.0,0 STARLINK-4493,1 53533U 22101G   23259.16367799 -.00001137  00000-0 -53322-4 0  9997,2 53533  53.2176 179.1749 0001498 104.7126 255.4032 15.08856003 59467,6917.831,95.437,540.733,538.66,0.0
53533.0,STARLINK-4493,PAYLOAD,2023-09-17 02:11:06,15.08838575,0.0001528,53.218,175.0097,96.9099,263.2067,0.00012023,1.626e-05,0.0,0 STARLINK-4493,1 53533U 22101G   23260.09104955  .00001626  00000-0  12023-3 0  9997,2 53533  53.2180 175.0097 0001528  96.9099 263.2067 15.08838575 59603,6917.885,95.438,540.807,538.693,0.0
53533.0,STARLINK-4493,PAYLOAD,2023-09-17 03:46:29,15.08841796,0.0001458,53.2179,174.7115,98.461,261.6548,0.00015346,2.155e-05,0.0,0 STARLINK-4493,1 53533U 22101G   23260.15728749  .00002155  00000-0  15346-3 0  9996,2 53533  53.2179 174.7115 0001458  98.4610 261.6548 15.08841796 59612,6917.875,95.437,540.749,538.731,0.0
53533.0,STARLINK-4493,PAYLOAD,2023-09-18 00:26:29,15.08851991,0.0001273,53.2179,170.8463,99.2637,260.8499,0.00018184,2.608e-05,0.0,0 STARLINK-4493,1 53533U 22101G   23261.01839966  .00002608  00000-0  18184-3 0  9992,2 53533  53.2179 170.8463 0001273  99.2637 260.8499 15.08851991 59746,6917.844,95.437,540.589,538.828,0.0
53533.0,STARLINK-4493,PAYLOAD,2023-09-18 03:37:15,15.08856092,0.0001322,53.2179,170.2514,103.129,256.985,0.00014217,1.976e-05,0.0,0 STARLINK-4493,1 53533U 22101G   23261.15087734  .00001976  00000-0  14217-3 0  9995,2 53533  53.2179 170.2514 0001322 103.1290 256.9850 15.08856092 59768,6917.831,95.437,540.611,538.782,0.0
53533.0,STARLINK-4493,PAYLOAD,2023-09-18 21:06:31,15.08843654,0.0001374,53.2166,166.9806,96.0318,264.083,7.9016e-05,9.7e-06,0.0,0 STARLINK-4493,1 53533U 22101G   23261.87952690  .00000970  00000-0  79016-4 0  9998,2 53533  53.2166 166.9806 0001374  96.0318 264.0830 15.08843654 59878,6917.869,95.437,540.685,538.784,0.0
53533.0,STARLINK-4493,PAYLOAD,2023-09-19 00:17:17,15.08847581,0.0001512,53.2173,166.3849,95.7225,264.394,0.00013333,1.835e-05,0.0,0 STARLINK-4493,1 53533U 22101G   23262.01200481  .00001835  00000-0  13333-3 0  9999,2 53533  53.2173 166.3849 0001512  95.7225 264.3940 15.08847581 59894,6917.857,95.437,540.768,538.676,0.0
53533.0,STARLINK-4493,PAYLOAD,2023-09-20 03:18:49,15.08859653,0.0001587,53.2173,161.3292,98.0963,262.0209,0.00028934,4.322e-05,0.0,0 STARLINK-4493,1 53533U 22101G   23263.13807411  .00004322  00000-0  28934-3 0  9996,2 53533  53.2173 161.3292 0001587  98.0963 262.0209 15.08859653 60065,6917.82,95.436,540.783,538.587,0.0
53533.0,STARLINK-4493,PAYLOAD,2023-09-20 22:23:28,15.08823173,0.0001382,53.2172,157.7608,112.9854,247.1284,-0.00028013,-4.741e-05,0.0,0 STARLINK-4493,1 53533U 22101G   23263.93297160 -.00004741  00000-0 -28013-3 0  9993,2 53533  53.2172 157.7608 0001382 112.9854 247.1284 15.08823173 60180,6917.932,95.439,540.753,538.841,0.0
53533.0,STARLINK-4493,PAYLOAD,2023-09-21 01:34:15,15.0882231,0.0001333,53.2171,157.1712,111.6058,248.5076,-0.00026992,-4.579e-05,0.0,0 STARLINK-4493,1 53533U 22101G   23264.06545433 -.00004579  00000-0 -26992-3 0  9990,2 53533  53.2171 157.1712 0001333 111.6058 248.5076 15.08822310 60206,6917.934,95.439,540.722,538.877,0.0
